start=new Date('2023-06-03T00:00:00.000Z').valueOf();
sats=[{"SEMIMAJOR_AXIS":"6925.366","DECAY_DATE":null,"CENTER_NAME":"EARTH","REV_AT_EPOCH":"17749","RCS_SIZE":"LARGE","ARG_OF_PERICENTER":"60.6296","TLE_LINE2":"2 45405  53.0549 354.7914 0000715  60.6296 299.4765 15.06394199177498","APOAPSIS":"547.727","ELEMENT_SET_NO":"999","OBJECT_TYPE":"PAYLOAD","MEAN_ANOMALY":"299.4765","MEAN_MOTION_DDOT":"0.0000000000000","OBJECT_ID":"2020-019AX","SITE":"AFETR","MEAN_ELEMENT_THEORY":"SGP4","RA_OF_ASC_NODE":"354.7914","NORAD_CAT_ID":"45405","COUNTRY_CODE":"US","PERIOD":"95.593","EPOCH":"2023-06-02T18:35:05.455680","INCLINATION":"53.0549","LAUNCH_DATE":"2020-03-18","ECCENTRICITY":"0.00007150","TLE_LINE1":"1 45405U 20019AX  23153.77436870  .00005200  00000-0  36780-3 0  9990","GP_ID":"233067595","FILE":"3923570","BSTAR":"0.00036780000000","CLASSIFICATION_TYPE":"U","PERIAPSIS":"546.736","MEAN_MOTION_DOT":"0.00005200","REF_FRAME":"TEME","OBJECT_NAME":"STARLINK-1263","EPHEMERIS_TYPE":"0","TIME_SYSTEM":"UTC","MEAN_MOTION":"15.06394199"},{"SEMIMAJOR_AXIS":"6925.353","CENTER_NAME":"EARTH","DECAY_DATE":null,"REV_AT_EPOCH":"17749","RCS_SIZE":"LARGE","ARG_OF_PERICENTER":"64.9636","TLE_LINE2":"2 45406  53.0556 354.7604 0001027  64.9636 295.1459 15.06398635177497","APOAPSIS":"547.929","ELEMENT_SET_NO":"999","OBJECT_TYPE":"PAYLOAD","MEAN_ANOMALY":"295.1459","MEAN_MOTION_DDOT":"0.0000000000000","OBJECT_ID":"2020-019AY","SITE":"AFETR","MEAN_ELEMENT_THEORY":"SGP4","RA_OF_ASC_NODE":"354.7604","NORAD_CAT_ID":"45406","COUNTRY_CODE":"US","PERIOD":"95.592","EPOCH":"2023-06-02T18:45:42.595200","INCLINATION":"53.0556","LAUNCH_DATE":"2020-03-18","ECCENTRICITY":"0.00010270","TLE_LINE1":"1 45406U 20019AY  23153.78174300 -.00000475  00000-0 -12981-4 0  9998","FILE":"3923570","GP_ID":"233067845","BSTAR":"-0.00001298100000","CLASSIFICATION_TYPE":"U","PERIAPSIS":"546.507","REF_FRAME":"TEME","MEAN_MOTION_DOT":"-0.00000475","OBJECT_NAME":"STARLINK-1265","EPHEMERIS_TYPE":"0","TIME_SYSTEM":"UTC","MEAN_MOTION":"15.06398635"},{"ARG_OF_PERICENTER":"114.3918","TLE_LINE2":"2 45407  53.0537 354.6987 0001203 114.3918 245.7196 15.06378956177492","APOAPSIS":"548.111","SEMIMAJOR_AXIS":"6925.413","DECAY_DATE":null,"CENTER_NAME":"EARTH","REV_AT_EPOCH":"17749","RCS_SIZE":"LARGE","OBJECT_ID":"2020-019AZ","SITE":"AFETR","MEAN_ELEMENT_THEORY":"SGP4","RA_OF_ASC_NODE":"354.6987","NORAD_CAT_ID":"45407","COUNTRY_CODE":"US","ELEMENT_SET_NO":"999","OBJECT_TYPE":"PAYLOAD","MEAN_ANOMALY":"245.7196","MEAN_MOTION_DDOT":"0.0000000000000","ECCENTRICITY":"0.00012030","TLE_LINE1":"1 45407U 20019AZ  23153.79554089 -.00007309  00000-0 -47254-3 0  9999","FILE":"3923570","GP_ID":"233069097","PERIOD":"95.593","EPOCH":"2023-06-02T19:05:34.732896","INCLINATION":"53.0537","LAUNCH_DATE":"2020-03-18","MEAN_MOTION_DOT":"-0.00007309","REF_FRAME":"TEME","OBJECT_NAME":"STARLINK-1275","EPHEMERIS_TYPE":"0","TIME_SYSTEM":"UTC","MEAN_MOTION":"15.06378956","BSTAR":"-0.00047254000000","CLASSIFICATION_TYPE":"U","PERIAPSIS":"546.445"},{"ELEMENT_SET_NO":"999","OBJECT_TYPE":"PAYLOAD","MEAN_ANOMALY":"265.7267","MEAN_MOTION_DDOT":"0.0000000000000","OBJECT_ID":"2020-019BA","SITE":"AFETR","MEAN_ELEMENT_THEORY":"SGP4","RA_OF_ASC_NODE":"25.5328","NORAD_CAT_ID":"45408","COUNTRY_CODE":"US","SEMIMAJOR_AXIS":"6925.317","CENTER_NAME":"EARTH","DECAY_DATE":null,"REV_AT_EPOCH":"17705","RCS_SIZE":"LARGE","ARG_OF_PERICENTER":"94.4028","TLE_LINE2":"2 45408  53.0541  25.5328 0002671  94.4028 265.7267 15.06410354177053","APOAPSIS":"549.032","BSTAR":"-0.00005862400000","CLASSIFICATION_TYPE":"U","PERIAPSIS":"545.332","REF_FRAME":"TEME","MEAN_MOTION_DOT":"-0.00001155","OBJECT_NAME":"STARLINK-1278","EPHEMERIS_TYPE":"0","TIME_SYSTEM":"UTC","MEAN_MOTION":"15.06410354","PERIOD":"95.591","EPOCH":"2023-06-02T14:37:33.799872","INCLINATION":"53.0541","LAUNCH_DATE":"2020-03-18","ECCENTRICITY":"0.00026710","TLE_LINE1":"1 45408U 20019BA  23153.60941898 -.00001155  00000-0 -58624-4 0  9995","FILE":"3923527","GP_ID":"233048084"},{"LAUNCH_DATE":"2020-03-18","INCLINATION":"53.0543","PERIOD":"95.592","EPOCH":"2023-06-02T17:42:00.933984","GP_ID":"233068096","FILE":"3923570","ECCENTRICITY":"0.00008040","TLE_LINE1":"1 45409U 20019BB  23153.73751081  .00004812  00000-0  34174-3 0  9997","PERIAPSIS":"546.670","CLASSIFICATION_TYPE":"U","BSTAR":"0.00034174000000","MEAN_MOTION":"15.06395817","TIME_SYSTEM":"UTC","MEAN_MOTION_DOT":"0.00004812","REF_FRAME":"TEME","OBJECT_NAME":"STARLINK-1282","EPHEMERIS_TYPE":"0","RCS_SIZE":"LARGE","REV_AT_EPOCH":"17749","SEMIMAJOR_AXIS":"6925.361","DECAY_DATE":null,"CENTER_NAME":"EARTH","TLE_LINE2":"2 45409  53.0543 354.9573 0000804  62.3145 297.7925 15.06395817177497","APOAPSIS":"547.783","ARG_OF_PERICENTER":"62.3145","MEAN_MOTION_DDOT":"0.0000000000000","MEAN_ANOMALY":"297.7925","ELEMENT_SET_NO":"999","OBJECT_TYPE":"PAYLOAD","COUNTRY_CODE":"US","RA_OF_ASC_NODE":"354.9573","NORAD_CAT_ID":"45409","MEAN_ELEMENT_THEORY":"SGP4","OBJECT_ID":"2020-019BB","SITE":"AFETR"},{"MEAN_MOTION":"15.06393898","OBJECT_NAME":"STARLINK-1293","REF_FRAME":"TEME","MEAN_MOTION_DOT":"-0.00000781","EPHEMERIS_TYPE":"0","TIME_SYSTEM":"UTC","PERIAPSIS":"546.392","BSTAR":"-0.00003355900000","CLASSIFICATION_TYPE":"U","ECCENTRICITY":"0.00012130","TLE_LINE1":"1 45411U 20019BD  23153.75225610 -.00000781  00000-0 -33559-4 0  9996","GP_ID":"233068346","FILE":"3923570","INCLINATION":"53.0543","LAUNCH_DATE":"2020-03-18","PERIOD":"95.593","EPOCH":"2023-06-02T18:03:14.927040","RA_OF_ASC_NODE":"354.8883","NORAD_CAT_ID":"45411","COUNTRY_CODE":"US","OBJECT_ID":"2020-019BD","SITE":"AFETR","MEAN_ELEMENT_THEORY":"SGP4","MEAN_ANOMALY":"241.6910","MEAN_MOTION_DDOT":"0.0000000000000","ELEMENT_SET_NO":"999","OBJECT_TYPE":"PAYLOAD","TLE_LINE2":"2 45411  53.0543 354.8883 0001213 118.4201 241.6910 15.06393898177516","APOAPSIS":"548.072","ARG_OF_PERICENTER":"118.4201","RCS_SIZE":"LARGE","SEMIMAJOR_AXIS":"6925.367","DECAY_DATE":null,"CENTER_NAME":"EARTH","REV_AT_EPOCH":"17751"},{"REF_FRAME":"TEME","OBJECT_NAME":"STARLINK-1296","MEAN_MOTION_DOT":"-0.00004776","EPHEMERIS_TYPE":"0","TIME_SYSTEM":"UTC","MEAN_MOTION":"15.06384944","BSTAR":"-0.00030207000000","CLASSIFICATION_TYPE":"U","PERIAPSIS":"546.561","ECCENTRICITY":"0.00010090","TLE_LINE1":"1 45412U 20019BE  23153.78542416 -.00004776  00000-0 -30207-3 0  9990","FILE":"3923570","GP_ID":"233068597","PERIOD":"95.593","EPOCH":"2023-06-02T18:51:00.647424","INCLINATION":"53.0544","LAUNCH_DATE":"2020-03-18","OBJECT_ID":"2020-019BE","SITE":"AFETR","MEAN_ELEMENT_THEORY":"SGP4","RA_OF_ASC_NODE":"354.7463","NORAD_CAT_ID":"45412","COUNTRY_CODE":"US","ELEMENT_SET_NO":"999","OBJECT_TYPE":"PAYLOAD","MEAN_ANOMALY":"261.9138","MEAN_MOTION_DDOT":"0.0000000000000","ARG_OF_PERICENTER":"98.1966","TLE_LINE2":"2 45412  53.0544 354.7463 0001009  98.1966 261.9138 15.06384944177492","APOAPSIS":"547.958","SEMIMAJOR_AXIS":"6925.395","DECAY_DATE":null,"CENTER_NAME":"EARTH","REV_AT_EPOCH":"17749","RCS_SIZE":"LARGE"},{"ARG_OF_PERICENTER":"69.4783","APOAPSIS":"548.091","TLE_LINE2":"2 45413  53.0534 354.6148 0001218  69.4783 290.6337 15.06389006177596","CENTER_NAME":"EARTH","DECAY_DATE":null,"SEMIMAJOR_AXIS":"6925.382","REV_AT_EPOCH":"17759","RCS_SIZE":"LARGE","SITE":"AFETR","OBJECT_ID":"2020-019BF","MEAN_ELEMENT_THEORY":"SGP4","NORAD_CAT_ID":"45413","RA_OF_ASC_NODE":"354.6148","COUNTRY_CODE":"US","OBJECT_TYPE":"PAYLOAD","ELEMENT_SET_NO":"999","MEAN_ANOMALY":"290.6337","MEAN_MOTION_DDOT":"0.0000000000000","TLE_LINE1":"1 45413U 20019BF  23153.81492046  .00001785  00000-0  13871-3 0  9991","ECCENTRICITY":"0.00012180","FILE":"3923570","GP_ID":"233068845","EPOCH":"2023-06-02T19:33:29.127744","PERIOD":"95.593","INCLINATION":"53.0534","LAUNCH_DATE":"2020-03-18","EPHEMERIS_TYPE":"0","MEAN_MOTION_DOT":"0.00001785","REF_FRAME":"TEME","OBJECT_NAME":"STARLINK-1298","TIME_SYSTEM":"UTC","MEAN_MOTION":"15.06389006","BSTAR":"0.00013871000000","CLASSIFICATION_TYPE":"U","PERIAPSIS":"546.404"},{"FILE":"3923570","GP_ID":"233067596","TLE_LINE1":"1 45414U 20019BG  23153.80017275 -.00000032  00000-0  16748-4 0  9990","ECCENTRICITY":"0.00010790","LAUNCH_DATE":"2020-03-18","INCLINATION":"53.0560","EPOCH":"2023-06-02T19:12:14.925600","PERIOD":"95.593","MEAN_MOTION":"15.06388651","TIME_SYSTEM":"UTC","EPHEMERIS_TYPE":"0","REF_FRAME":"TEME","OBJECT_NAME":"STARLINK-1309","MEAN_MOTION_DOT":"-0.00000032","PERIAPSIS":"546.501","CLASSIFICATION_TYPE":"U","BSTAR":"0.00001674800000","APOAPSIS":"547.996","TLE_LINE2":"2 45414  53.0560 354.6755 0001079  77.2729 282.8380 15.06388651177486","ARG_OF_PERICENTER":"77.2729","RCS_SIZE":"LARGE","REV_AT_EPOCH":"17748","DECAY_DATE":null,"CENTER_NAME":"EARTH","SEMIMAJOR_AXIS":"6925.383","COUNTRY_CODE":"US","NORAD_CAT_ID":"45414","RA_OF_ASC_NODE":"354.6755","MEAN_ELEMENT_THEORY":"SGP4","SITE":"AFETR","OBJECT_ID":"2020-019BG","MEAN_MOTION_DDOT":"0.0000000000000","MEAN_ANOMALY":"282.8380","OBJECT_TYPE":"PAYLOAD","ELEMENT_SET_NO":"999"},{"MEAN_ANOMALY":"289.1215","MEAN_MOTION_DDOT":"0.0000000000000","ELEMENT_SET_NO":"999","OBJECT_TYPE":"PAYLOAD","RA_OF_ASC_NODE":"354.8551","NORAD_CAT_ID":"45415","COUNTRY_CODE":"US","OBJECT_ID":"2020-019BH","SITE":"AFETR","MEAN_ELEMENT_THEORY":"SGP4","RCS_SIZE":"LARGE","SEMIMAJOR_AXIS":"6925.391","CENTER_NAME":"EARTH","DECAY_DATE":null,"REV_AT_EPOCH":"17751","TLE_LINE2":"2 45415  53.0536 354.8551 0000682  70.9848 289.1215 15.06386029177515","APOAPSIS":"547.729","ARG_OF_PERICENTER":"70.9848","PERIAPSIS":"546.784","BSTAR":"-0.00003328700000","CLASSIFICATION_TYPE":"U","MEAN_MOTION":"15.06386029","REF_FRAME":"TEME","MEAN_MOTION_DOT":"-0.00000777","OBJECT_NAME":"STARLINK-1316","EPHEMERIS_TYPE":"0","TIME_SYSTEM":"UTC","INCLINATION":"53.0536","LAUNCH_DATE":"2020-03-18","PERIOD":"95.593","EPOCH":"2023-06-02T18:13:51.530016","ECCENTRICITY":"0.00006820","TLE_LINE1":"1 45415U 20019BH  23153.75962419 -.00000777  00000-0 -33287-4 0  9998","FILE":"3923570","GP_ID":"233067846"}];
